QIANFAN-60              
1 62790U 25016F   25273.45632892  .00000063  00000+0  77135-4 0  9991
2 62790  88.9732 110.6637 0014892 189.3455 170.7422 13.52524324 37336
QIANFAN-61              
1 62791U 25016G   25286.30206818  .00000068  00000+0  87255-4 0  9994
2 62791  88.9789 109.4542 0015427 151.6469 208.5525 13.50974248 39082
QIANFAN-62              
1 62792U 25016H   25286.30630176  .00000073  00000+0  93542-4 0  9995
2 62792  88.9736 109.3549 0016789 152.4938 207.7105 13.50968187 39072
QIANFAN-63              
1 62793U 25016J   25286.33089433  .00000071  00000+0  90738-4 0  9995
2 62793  88.9746 109.2998 0016702 157.5671 202.6214 13.50971190 39114
QIANFAN-64              
1 62794U 25016K   25286.29797182  .00000062  00000+0  76437-4 0  9998
2 62794  88.9729 109.2854 0014831 150.1199 210.0802 13.50972769 39100
QIANFAN-65              
1 62795U 25016L   25286.29387859  .00000071  00000+0  90706-4 0  9990
2 62795  88.9723 109.3140 0014617 151.7459 208.4488 13.50971781 39083
QIANFAN-66              
1 62796U 25016M   25284.76742828  .00000126  00000+0  17597-3 0  9999
2 62796  88.9747 109.4302 0015725 152.1511 208.0485 13.50966984 38920
QIANFAN-67              
1 62797U 25016N   25286.32677198  .00000073  00000+0  94059-4 0  9991
2 62797  88.9738 109.3004 0015636 154.4492 205.7435 13.50968531 39103
QIANFAN-68              
1 62798U 25016P   25286.31857313  .00000075  00000+0  97282-4 0  9993
2 62798  88.9739 109.3442 0015729 152.8138 207.3840 13.50970859 39084
QIANFAN-69              
1 62799U 25016Q   25286.26099646  .00000053  00000+0  63215-4 0  9990
2 62799  88.9715 109.2326 0016460 154.2581 205.9393 13.50968366 39111
QIANFAN-70              
1 62800U 25016R   25286.27732212 -.00000050  00000+0 -96564-4 0  9999
2 62800  88.9747 109.3566 0016252 145.1699 215.0519 13.50972974 39071
QIANFAN-71              
1 62801U 25016S   25286.27330545  .00000067  00000+0  84381-4 0  9993
2 62801  88.9730 109.3402 0016270 157.5712 202.6154 13.50972066 39075
QIANFAN-72              
1 62802U 25016T   25274.29087208  .00000084  00000+0  11481-3 0  9997
2 62802  88.9730 110.6012 0018440 200.3911 159.6505 13.49486897 37447
QIANFAN-73              
1 63159U 25046A   25286.31661538  .00000123  00000+0  17216-3 0  9992
2 63159  88.9797 326.2780 0012991 302.2799  57.7093 13.50969219 39251
QIANFAN-74              
1 63160U 25046B   25286.37421870  .00000126  00000+0  17655-3 0  9993
2 63160  88.9794 326.1603 0002196 100.3178 259.8220 13.50971143 39321
QIANFAN-75              
1 63161U 25046C   25286.36182421  .00000123  00000+0  17179-3 0  9997
2 63161  88.9799 326.3943 0014135 305.2377  54.7450 13.50978522 39199
QIANFAN-76              
1 63162U 25046D   25286.35776966  .00000035  00000+0  35851-4 0  9990
2 63162  88.9796 326.3757 0011710 306.7416  53.2659 13.50971567 39205
QIANFAN-77              
1 63163U 25046E   25286.33641367  .00000357  00000+0  25028-3 0  9996
2 63163  88.9795 324.8810 0012471 268.0797  91.8951 13.96069533 40021
QIANFAN-78              
1 63164U 25046F   25286.32487810  .00000141  00000+0  19943-3 0  9997
2 63164  88.9794 326.2437 0013127 308.9546  51.0434 13.50971546 39272
QIANFAN-79              
1 63165U 25046G   25286.35355655  .00000147  00000+0  20927-3 0  9992
2 63165  88.9801 326.3459 0012781 306.9808  53.0173 13.50970740 39223
QIANFAN-80              
1 63166U 25046H   25286.37013109  .00000168  00000+0  24232-3 0  9996
2 63166  88.9798 326.0527 0011851 312.4527  47.5622 13.50971328 39386
QIANFAN-81              
1 63167U 25046J   25286.34932994  .00000135  00000+0  19115-3 0  9994
2 63167  88.9798 326.1232 0012654 298.5876  61.4002 13.50985818 39335
QIANFAN-82              
1 63168U 25046K   25286.30839623  .00000145  00000+0  20611-3 0  9990
2 63168  88.9798 326.1710 0010939 308.6764  51.3408 13.50968346 39313
QIANFAN-83              
1 63169U 25046L   25286.30872440  .00000174  00000+0  21062-3 0  9998
2 63169  88.9799 326.0659 0011987 294.8473  65.1438 13.61962625 39371
QIANFAN-84              
1 63170U 25046M   25286.26270825  .00000084  00000+0  11140-3 0  9990
2 63170  88.9799 326.3087 0013827 303.5713  56.4118 13.50985867 39235
QIANFAN-85              
1 63171U 25046N   25286.25902992  .00000177  00000+0  25505-3 0  9990
2 63171  88.9798 326.1810 0011258 307.3901  52.6225 13.50971204 39309
QIANFAN-86              
1 63172U 25046P   25286.34133799  .00000166  00000+0  23844-3 0  9994
2 63172  88.9800 326.0332 0009232 313.4277  46.6105 13.50968294 39399
QIANFAN-87              
1 63173U 25046Q   25282.68330257  .00000145  00000+0  20656-3 0  9991
2 63173  88.9804 326.5243 0010016 319.1660  40.8739 13.50979787 38837
QIANFAN-88              
1 63174U 25046R   25283.51451471  .00000149  00000+0  21299-3 0  9995
2 63174  88.9800 326.3915 0010557 325.4993  34.5472 13.50973338 38972
QIANFAN-89              
1 63175U 25046S   25286.36586058  .00000167  00000+0  23960-3 0  9999
2 63175  88.9799 326.2867 0014502 303.6050  56.3716 13.50969422 39255
QIANFAN-90              
1 63176U 25046T   25286.32053406  .00000145  00000+0  20562-3 0  9993
2 63176  88.9796 326.2637 0011415 302.5058  57.4990 13.50971318 39268
